{
    "links": {
        "self": "http://www.neowsapp.com/rest/v1/neo/3836173?api_key=iIulBulltgU6a56xZRHN4H3l9WmuAYTsLGpBGhQ2"
    },
    "id": "3836173",
    "neo_reference_id": "3836173",
    "name": "(2018 VT6)",
    "designation": "2018 VT6",
    "nasa_jpl_url": "http://ssd.jpl.nasa.gov/sbdb.cgi?sstr=3836173",
    "absolute_magnitude_h": 25.3,
    "estimated_diameter": {
        "kilometers": {
            "estimated_diameter_min": 0.0231502122,
            "estimated_diameter_max": 0.0517654482
        },
        "meters": {
            "estimated_diameter_min": 23.150212221,
            "estimated_diameter_max": 51.7654482198
        },
        "miles": {
            "estimated_diameter_min": 0.0143848705,
            "estimated_diameter_max": 0.0321655483
        },
        "feet": {
            "estimated_diameter_min": 75.9521422633,
            "estimated_diameter_max": 169.8341531374
        }
    },
    "is_potentially_hazardous_asteroid": false,
    "close_approach_data": [
        {
            "close_approach_date": "2015-05-16",
            "close_approach_date_full": "2015-May-16 17:38",
            "epoch_date_close_approach": 1431797880000,
            "relative_velocity": {
                "kilometers_per_second": "6.6914777379",
                "kilometers_per_hour": "24089.3198564367",
                "miles_per_hour": "14968.1665519065"
            },
            "miss_distance": {
                "astronomical": "0.4105361808",
                "lunar": "159.6985743312",
                "kilometers": "61415338.205614896",
                "miles": "38161721.5784257248"
            },
            "orbiting_body": "Earth"
        },
        {
            "close_approach_date": "2015-11-09",
            "close_approach_date_full": "2015-Nov-09 09:12",
            "epoch_date_close_approach": 1447060320000,
            "relative_velocity": {
                "kilometers_per_second": "14.5285346658",
                "kilometers_per_hour": "52302.7247969822",
                "miles_per_hour": "32498.8791939915"
            },
            "miss_distance": {
                "astronomical": "0.2983571234",
                "lunar": "116.0609210026",
                "kilometers": "44633590.159967158",
                "miles": "27734026.8814884604"
            },
            "orbiting_body": "Earth"
        },
        {
            "close_approach_date": "2018-10-20",
            "close_approach_date_full": "2018-Oct-20 04:29",
            "epoch_date_close_approach": 1540009740000,
            "relative_velocity": {
                "kilometers_per_second": "5.5307799426",
                "kilometers_per_hour": "19910.8077933468",
                "miles_per_hour": "12371.8016535938"
            },
            "miss_distance": {
                "astronomical": "0.0767158962",
                "lunar": "29.8424836218",
                "kilometers": "11476534.666661094",
                "miles": "7131187.9642833372"
            },
            "orbiting_body": "Earth"
        },
        {
            "close_approach_date": "2021-07-05",
            "close_approach_date_full": "2021-Jul-05 00:59",
            "epoch_date_close_approach": 1625446740000,
            "relative_velocity": {
                "kilometers_per_second": "10.6370736496",
                "kilometers_per_hour": "38293.4651384542",
                "miles_per_hour": "23794.0700467245"
            },
            "miss_distance": {
                "astronomical": "0.1997266971",
                "lunar": "77.6936851719",
                "kilometers": "29878688.468295177",
                "miles": "18565756.1086483626"
            },
            "orbiting_body": "Earth"
        }
    ],
    "orbital_data": {
        "orbit_id": "5",
        "orbit_determination_date": "2020-10-24 07:44:55",
        "first_observation_date": "2018-11-07",
        "last_observation_date": "2018-11-20",
        "data_arc_in_days": 13,
        "observations_used": 31,
        "orbit_uncertainty": "8",
        "minimum_orbit_intersection": ".0649531",
        "jupiter_tisserand_invariant": "4.976",
        "epoch_osculation": "2458431.5",
        "eccentricity": ".2505074701428077",
        "semi_major_axis": "1.295210670068408",
        "inclination": "7.072434022826482",
        "ascending_node_longitude": "236.6282124726962",
        "orbital_period": "538.4049538278819",
        "perihelion_distance": ".9707507218076",
        "perihelion_argument": "109.5498924880952",
        "aphelion_distance": "1.619670618329215",
        "perihelion_time": "2458373.495699196485",
        "mean_anomaly": "38.78409390702012",
        "mean_motion": ".668641693284058",
        "equinox": "J2000",
        "orbit_class": {
            "orbit_class_type": "APO",
            "orbit_class_description": "Near-Earth asteroid orbits which cross the Earth’s orbit similar to that of 1862 Apollo",
            "orbit_class_range": "a (semi-major axis) > 1.0 AU; q (perihelion) < 1.017 AU"
        }
    },
    "is_sentry_object": false
}